CUTE-1.7+APD II (CO-65) 
1 32785U 08021C   26074.21944096  .00007912  00000+0  51149-3 0  9991
2 32785  97.8207  53.7902 0008984   0.4138 359.7095 15.08460261971021
SEEDS II (CO-66)        
1 32791U 08021J   26073.95956670  .00024478  00000+0  86115-3 0  9996
2 32791  97.7514  67.6101 0000641 328.6940  31.4261 15.29337445972874
YUBILEINY (RS30)        
1 32953U 08025A   26074.26087133  .00000055  00000+0  32359-3 0  9990
2 32953  82.5006  53.8559 0019740 153.1564 207.0542 12.43176218808029
KKS-1 (KISEKI)          
1 33499U 09002H   26074.20058521  .00001859  00000+0  23637-3 0  9997
2 33499  98.1184 355.1795 0006682 229.0383 131.0252 14.82852820922260
SWISSCUBE               
1 35932U 09051B   26073.95170288  .00001364  00000+0  28021-3 0  9994
2 35932  98.4097 340.1877 0007422 137.4075 222.7702 14.62275636875388
BEESAT-1                
1 35933U 09051C   26074.18690302  .00001035  00000+0  21834-3 0  9995
2 35933  98.4025 340.2563 0005680 147.2000 212.9554 14.61546841875456
ITUPSAT1                
1 35935U 09051E   26074.23293837  .00000939  00000+0  20462-3 0  9993
2 35935  98.4111 339.5922 0007647 160.9379 199.2108 14.60280671875020
XIWANG-1 (HOPE-1)       
1 36122U 09072B   26074.23293628  .00000301  00000+0  90530-3 0  9999
2 36122 100.3917  29.6098 0008138  87.7801 272.4244 13.16437182780648
O/OREOS (USA 219)       
1 37224U 10062C   26074.02388635  .00002826  00000+0  27482-3 0  9994
2 37224  71.9705 293.5681 0016706 247.6425 112.2976 14.93311159102584
JUGNU                   
1 37839U 11058B   26073.57141022  .00000513  00000+0  12835-3 0  9995
2 37839  19.9595 163.2385 0018726 111.0167 277.7923 14.13743579745624
SRMSAT                  
1 37841U 11058D   26074.22114294  .00000448  00000+0  99437-4 0  9993
2 37841  19.9715 268.2252 0011718 250.1880 266.5988 14.11549976744529
STRAND-1                
1 39090U 13009E   26074.06473914  .00000412  00000+0  15301-3 0  9996
2 39090  98.3893 256.6229 0009306 146.5378 213.6399 14.37100135683541
ZACUBE-1 (TSHEPISOSAT)  
1 39417U 13066B   26073.86543069  .00005958  00000+0  47004-3 0  9993
2 39417  97.8157  35.7145 0043138 202.7590 157.1722 15.00383064666588
GOMX-1                  
1 39430U 13066Q   26074.27353846  .00002366  00000+0  36139-3 0  9993
2 39430  97.6571 280.6304 0129888  19.6926 340.9229 14.69121970656127
CUBEBUG-2 (LO-74)       
1 39440U 13066AA  26074.12629041  .00006928  00000+0  65006-3 0  9994
2 39440  97.8812  22.8074 0057937 341.0084  18.8974 14.93028944662950
FUNCUBE-1 (AO-73)       
1 39444U 13066AE  26074.14862953  .00009801  00000+0  63026-3 0  9994
2 39444  97.8183  43.7800 0037879 160.7434 199.5236 15.08016483665483
